ONEWEB-0596             
1 54662U 22166W   23059.58334491 -.00935372  00000+0 -61928+0 0  9991
2 54662  87.1925 125.7260 0007208 332.0073 115.9466 14.04612290  1300
ONEWEB-0596             
1 54662U 22166W   23060.00001157 -.00945971  00000+0 -63646+0 0  9995
2 54662  87.2011 125.5976 0007059 329.6198  63.3386 14.03750991 12739
ONEWEB-0596             
1 54662U 22166W   23060.58334491 -.00936180  00000+0 -64322+0 0  9992
2 54662  87.2129 125.4167 0007096 328.5010 129.2938 14.02546854 12816
ONEWEB-0596             
1 54662U 22166W   23061.00001157 -.00944671  00000+0 -65945+0 0  9996
2 54662  87.2215 125.2896 0006968 325.9689  73.7365 14.01684798  1307
ONEWEB-0596             
1 54662U 22166W   23061.25001157 -.01025975  00000+0 -72561+0 0  9993
2 54662  87.2265 125.2128 0006742 325.5049 254.7055 14.01221317 12916
ONEWEB-0596             
1 54662U 22166W   23061.83334491 -.01031988  00000+0 -74593+0 0  9995
2 54662  87.2384 125.0354 0006666 323.2166 316.4218 14.00014882 12998
ONEWEB-0596             
1 54662U 22166W   23061.83334491 -.01031988  00000+0 -74593+0 0  9995
2 54662  87.2384 125.0354 0006666 323.2166 316.4218 14.00014882  1301
ONEWEB-0596             
1 54662U 22166W   23062.50001157 -.00951309  00000+0 -70180+0 0  9995
2 54662  87.2519 124.8328 0006876 320.8295  75.0731 13.98593757 13083
ONEWEB-0596             
1 54662U 22166W   23062.58334491 -.00936397  00000+0 -69233+0 0  9990
2 54662  87.2535 124.8077 0006857 321.2902 133.9093 13.98419286  1302
ONEWEB-0596             
1 54662U 22166W   23062.91667824 -.00987967  00000+0 -74133+0 0  9990
2 54662  87.2602 124.7083 0006658 319.0716  12.8079 13.97752632  1303
